0 IRIDIUM 33 DEB
1 34508U 97051GZ  13281.83024910  .00001112  00000-0  50317-3 0  2171
2 34508 086.3803 146.2377 0085368 079.5745 047.6538 14.19214078239337
0 IRIDIUM 33 DEB
1 34508U 97051GZ  13283.09843475  .00001237  00000-0  56076-3 0  2183
2 34508 086.3802 145.7183 0085354 075.6355 046.9388 14.19220907239517
0 IRIDIUM 33 DEB
1 34508U 97051GZ  13286.06552010  .00001310  00000-0  59420-3 0  2206
2 34508 086.3796 144.5029 0085310 066.4265 086.1465 14.19228247239938
0 IRIDIUM 33 DEB
1 34508U 97051GZ  13287.38483022  .00001442  00000-0  65478-3 0  2215
2 34508 086.3792 143.9623 0085302 062.3340 346.6904 14.19231985240114
0 IRIDIUM 33 DEB
1 34508U 97051GZ  13288.44768850  .00001903  00000-0  86708-3 0  2220
2 34508 086.3789 143.5267 0085285 059.0297 017.0078 14.19237979240271
0 IRIDIUM 33 DEB
1 34508U 97051GZ  13289.79755235  .00001623  00000-0  73812-3 0  2234
2 34508 086.3788 142.9737 0085222 054.8343 073.7083 14.19243861240464
0 IRIDIUM 33 DEB
1 34508U 97051GZ  13291.07199306  .00001575  00000-0  71621-3 0  2242
2 34508 086.3788 142.4516 0085151 050.8677 105.0896 14.19247509240645
0 IRIDIUM 33 DEB
1 34508U 97051GZ  13292.52712868  .00001676  00000-0  76293-3 0  2250
2 34508 086.3787 141.8554 0085044 046.3155 339.7280 14.19251501240843
0 IRIDIUM 33 DEB
1 34508U 97051GZ  13293.81633808  .00001865  00000-0  84992-3 0  2265
2 34508 086.3787 141.3270 0084973 042.2894 086.6230 14.19255400241035
0 IRIDIUM 33 DEB
1 34508U 97051GZ  13295.01445815  .00001955  00000-0  89107-3 0  2272
2 34508 086.3786 140.8360 0084930 038.5660 088.1156 14.19259809241200
